MALLIGYONG-1            
1 58400U 23179A   24220.87703504  .00008382  00000+0  37182-3 0  9997
2 58400  97.3958 106.8506 0002747  59.0200 301.1306 15.21830911 39582
